[{"OBJECT_NAME":"STARLINK-5446","OBJECT_ID":"2022-175AH","EPOCH":"2026-03-09T05:46:11.315136","MEAN_MOTION":15.08828996,"ECCENTRICITY":0.0001598,"INCLINATION":53.2197,"RA_OF_ASC_NODE":15.9031,"ARG_OF_PERICENTER":104.6325,"MEAN_ANOMALY":255.4845,"EPHEMERIS_TYPE":0,"CLASSIFICATION_TYPE":"U","NORAD_CAT_ID":54789,"ELEMENT_SET_NO":999,"REV_AT_EPOCH":18027,"BSTAR":-8.1088323e-5,"MEAN_MOTION_DOT":-1.578e-5,"MEAN_MOTION_DDOT":0},{"OBJECT_NAME":"CZ-6A R\/B","OBJECT_ID":"2022-031C","EPOCH":"2026-03-09T19:50:55.360896","MEAN_MOTION":15.07476837,"ECCENTRICITY":0.00174842,"INCLINATION":97.8104,"RA_OF_ASC_NODE":273.2347,"ARG_OF_PERICENTER":181.6412,"MEAN_ANOMALY":178.4761,"EPHEMERIS_TYPE":0,"CLASSIFICATION_TYPE":"U","NORAD_CAT_ID":52152,"ELEMENT_SET_NO":999,"REV_AT_EPOCH":21633,"BSTAR":0.00020233161,"MEAN_MOTION_DOT":3.012e-5,"MEAN_MOTION_DDOT":0}]
